TOMORROW-S1             
1 60479U 24149M   26068.72470524  .00008620  00000+0  28856-3 0  9996
2 60479  97.3791 149.6044 0001819 207.2040 152.9106 15.31198362 86867
STARLINK-35570          
1 66090U 25236E   26068.33105382  .00022963  00000+0  78500-3 0  9990
2 66090  53.1572 105.2583 0001274  88.6862 271.4284 15.30200309 22894
